NUSAT-1 (FRESCO)        
1 41557U 16033B   22189.11735047  .00007553  00000+0  22406-3 0  9991
2 41557  97.3893 286.8552 0009231 307.2515 171.7765 15.35071196340556
BEESAT-4                
1 41619U 16040W   22188.63334120  .00009560  00000+0  31552-3 0  9993
2 41619  97.2154 238.7275 0010531  54.5520 305.6703 15.31565971323810
CAS-2T & KS-1Q          
1 41847U 16066G   22188.65286546  .00000817  00000+0  13123-3 0  9994
2 41847  98.5499 253.3021 0364472 149.3241 212.9819 14.38615859297253
NAYIF-1 (EO-88)         
1 42017U 17008BX  22189.16532136  .00015158  00000+0  44598-3 0  9991
2 42017  97.2678 254.9844 0006033 155.2866 204.8668 15.35151441300250
ZHUHAI-1 02 (CAS-4B)    
1 42759U 17034B   22189.12432358  .00001543  00000+0  10107-3 0  9996
2 42759  43.0167 218.7532 0008423  50.7311  49.1164 15.12022457279486
ZHUHAI-1 01 (CAS-4A)    
1 42761U 17034D   22189.16035940  .00001437  00000+0  94832-4 0  9999
2 42761  43.0162 217.3235 0008448  53.9275  53.9620 15.12107422279497
MAX VALIER SAT          
1 42778U 17036P   22189.35662809  .00006667  00000+0  25195-3 0  9995
2 42778  97.2038 229.7411 0008918 246.2638 113.7666 15.27269154280093
RADFXSAT (FOX-1B)       
1 43017U 17073E   22188.97297531  .00002978  00000+0  22520-3 0  9996
2 43017  97.6734  82.3265 0249665 120.4653 242.1477 14.81492002250153
FOX-1D (AO-92)          
1 43137U 18004AC  22189.16086408  .00007928  00000+0  27802-3 0  9993
2 43137  97.3680 264.1343 0005826 290.7943  69.2673 15.29698631249504
DIWATA-2B               
1 43678U 18084H   22189.23716071  .00000091  00000+0  14740-4 0  9997
2 43678  97.9740 322.7493 0008996 210.1991 149.8706 14.92194500200957
ES'HAIL 2               
1 43700U 18090A   22188.88382782  .00000158  00000+0  00000+0 0  9991
2 43700   0.0166  51.8898 0001249  65.8220 152.0660  1.00270343 13236
FOX-1CLIFF (AO-95)      
1 43770U 18099N   22189.18478848  .00001749  00000+0  15870-3 0  9992
2 43770  97.6195 254.9964 0013779 200.1892 159.8787 14.96509506196116
ITASAT 1                
1 43786U 18099AE  22189.17611000  .00001115  00000+0  10261-3 0  9993
2 43786  97.6221 255.9183 0014538 193.8783 166.2041 14.96645629196154
JY1SAT (JO-97)          
1 43803U 18099AX  22189.18695277  .00001909  00000+0  16989-3 0  9996
2 43803  97.6181 255.6892 0014601 192.0478 168.0397 14.97155843196177
UWE-4                   
1 43880U 18111E   22188.70415592  .00001608  00000+0  14014-3 0  9996
2 43880  97.6684  94.6627 0009712 251.8322 108.1843 14.98251239192732
NEXUS (FO-99)           
1 43937U 19003F   22189.08568237  .00011327  00000+0  37657-3 0  9994
2 43937  97.1294 221.6365 0022422  82.0418 278.3367 15.31085656193133
PSAT2 (NO-104)          
1 44354U 19036R   22189.25357349  .00052521 -57418-5  44710-3 0  9994
2 44354  28.5267  33.8887 0221871 205.5557 153.3930 15.42064727167881
JAISAT-1                
1 44419U 19038F   22188.87889450  .00006851  00000+0  34269-3 0  9999
2 44419  97.6362 159.1695 0021073  63.6482 296.6911 15.17562155166156
DUCHIFAT-3              
1 44854U 19089C   22189.15774200  .00002040  00000+0  16207-3 0  9994
2 44854  36.9684 337.5935 0008614  20.0363 148.6927 15.01182269141043
CAS-6 (TO-108)          
1 44881U 19093C   22189.10755622  .00000312  00000+0  46205-4 0  9993
2 44881  97.8923 268.0210 0016285 116.5437 243.7439 14.81746886137830
RS-44 & BREEZE-KM R/B   
1 44909U 19096E   22188.83066722  .00000023  00000+0  55410-4 0  9999
2 44909  82.5198 216.7378 0216162 272.1162  85.5201 12.79713835118113
ORBITAL FACTORY 2 (OF-2)
1 45113U 19071C   22188.66709695  .00017463  00000+0  35636-3 0  9997
2 45113  51.6392 319.8458 0009565 247.7607 112.2366 15.46239389136504
HUSKYSAT-1 (HO-107)     
1 45119U 19071J   22188.75022694  .00015902  00000+0  33677-3 0  9999
2 45119  51.6390 319.6243 0009317 244.2937 115.7088 15.45226999136502
BY70-2                  
1 45857U 20042B   22189.11573840  .00003860  00000+0  51644-3 0  9997
2 45857  97.9549 265.7604 0011642  58.2317 302.0060 14.80006638108516
SALSAT                  
1 46495U 20068K   22188.78025143  .00001969  00000+0  14450-3 0  9996
2 46495  97.7306 130.0879 0015784 204.1229 155.9259 15.04580817 97242
BY70-3                  
1 46839U 20079N   22189.19562091  .00014008  00000+0  32288-3 0  9991
2 46839  97.1962 261.0264 0004298 237.9673 177.3773 15.42685250 93440
RADFXSAT-2 (AO-109)     
1 47311U 21002C   22188.78782416  .00005682  00000+0  23193-3 0  9996
2 47311  60.6859 285.6849 0020065 353.9718   6.1126 15.25544234 81564
UVSQ-SAT                
1 47438U 21006AB  22188.61245561  .00003386  00000+0  18017-3 0  9995
2 47438  97.4359 247.2096 0011503 196.6906 163.3950 15.15869189 80336
DIY-1 (ARDUIQUBE)       
1 47963U 21022AH  22188.44191609  .00009624  00000+0  53212-3 0  9997
2 47963  97.5306  89.5735 0019155  66.1953 294.1284 15.13933084 69977
XW-3 (CAS-9)            
1 50466U 21131B   22189.17825267  .00000008  00000+0  17346-4 0  9991
2 50466  98.5803 266.4223 0005890  91.0833 269.1029 14.38505347 27892
TEVEL-3                 
1 50988U 22002E   22189.17083259  .00004424  00000+0  24278-3 0  9992
2 50988  97.4802 255.8081 0009107   3.3740  49.2078 15.14625725 26551
TEVEL-8                 
1 50989U 22002F   22189.31099958  .00004424  00000+0  24315-3 0  9994
2 50989  97.4818 255.9656 0009101   1.9097  62.7540 15.14574846 26574
TEVEL-5                 
1 50998U 22002Q   22189.18604154  .00004361  00000+0  23612-3 0  9998
2 50998  97.4798 255.9251 0010624 357.1665  60.4906 15.15103365 26566
TEVEL-6                 
1 50999U 22002R   22189.18562634  .00004363  00000+0  23622-3 0  9998
2 50999  97.4793 255.9222 0010585 356.9675  60.6251 15.15108147 26562
TEVEL-1                 
1 51013U 22002AF  22189.16798201  .00004393  00000+0  24131-3 0  9994
2 51013  97.4797 255.7880 0009049   2.8803  20.3800 15.14601012 26555
TEVEL-7                 
1 51062U 22002CG  22189.17889568  .00004404  00000+0  24215-3 0  9992
2 51062  97.4811 255.8234 0009138   1.3555  55.6740 15.14563786 26556
TEVEL-4                 
1 51063U 22002CH  22189.17919550  .00004376  00000+0  24066-3 0  9990
2 51063  97.4812 255.8211 0009025   2.0382  53.4996 15.14555452 26554
TEVEL-2                 
1 51069U 22002CP  22189.17255795  .00004426  00000+0  24293-3 0  9998
2 51069  97.4800 255.7995 0009098   2.8692  53.1043 15.14618244 26556
